[{"OBJECT_NAME":"TIANMU-1 10","OBJECT_ID":"2023-101D","EPOCH":"2026-03-05T06:02:15.493344","MEAN_MOTION":15.29127392,"ECCENTRICITY":0.0006576,"INCLINATION":97.2757,"RA_OF_ASC_NODE":117.494,"ARG_OF_PERICENTER":147.0722,"MEAN_ANOMALY":213.0929,"EPHEMERIS_TYPE":0,"CLASSIFICATION_TYPE":"U","NORAD_CAT_ID":57402,"ELEMENT_SET_NO":999,"REV_AT_EPOCH":14575,"BSTAR":0.00025467,"MEAN_MOTION_DOT":7.131e-5,"MEAN_MOTION_DDOT":0},{"OBJECT_NAME":"FENGYUN 3F","OBJECT_ID":"2023-111A","EPOCH":"2026-03-05T07:39:28.073952","MEAN_MOTION":14.19918312,"ECCENTRICITY":0.00013147,"INCLINATION":98.6936,"RA_OF_ASC_NODE":136.2261,"ARG_OF_PERICENTER":81.985,"MEAN_ANOMALY":278.1476,"EPHEMERIS_TYPE":0,"CLASSIFICATION_TYPE":"U","NORAD_CAT_ID":57490,"ELEMENT_SET_NO":999,"REV_AT_EPOCH":13412,"BSTAR":7.1206507e-5,"MEAN_MOTION_DOT":1.08e-6,"MEAN_MOTION_DDOT":0},{"OBJECT_NAME":"ARKTIKA-M 2","OBJECT_ID":"2023-198A","EPOCH":"2026-03-03T01:58:58.035360","MEAN_MOTION":2.00614888,"ECCENTRICITY":0.68769635,"INCLINATION":63.2203,"RA_OF_ASC_NODE":166.1216,"ARG_OF_PERICENTER":267.7841,"MEAN_ANOMALY":18.8417,"EPHEMERIS_TYPE":0,"CLASSIFICATION_TYPE":"U","NORAD_CAT_ID":58584,"ELEMENT_SET_NO":999,"REV_AT_EPOCH":1619,"BSTAR":0,"MEAN_MOTION_DOT":1.37e-6,"MEAN_MOTION_DDOT":0},{"OBJECT_NAME":"TIANMU-1 11","OBJECT_ID":"2023-205A","EPOCH":"2026-03-05T06:44:48.163200","MEAN_MOTION":15.25807822,"ECCENTRICITY":0.00095391,"INCLINATION":97.3546,"RA_OF_ASC_NODE":87.5032,"ARG_OF_PERICENTER":23.2224,"MEAN_ANOMALY":336.9444,"EPHEMERIS_TYPE":0,"CLASSIFICATION_TYPE":"U","NORAD_CAT_ID":58645,"ELEMENT_SET_NO":999,"REV_AT_EPOCH":12167,"BSTAR":0.0003267282,"MEAN_MOTION_DOT":8.293e-5,"MEAN_MOTION_DDOT":0},{"OBJECT_NAME":"TIANMU-1 12","OBJECT_ID":"2023-205B","EPOCH":"2026-03-05T07:31:10.839360","MEAN_MOTION":15.25732592,"ECCENTRICITY":0.00073047,"INCLINATION":97.3534,"RA_OF_ASC_NODE":87.3149,"ARG_OF_PERICENTER":9.9112,"MEAN_ANOMALY":350.2269,"EPHEMERIS_TYPE":0,"CLASSIFICATION_TYPE":"U","NORAD_CAT_ID":58646,"ELEMENT_SET_NO":999,"REV_AT_EPOCH":12166,"BSTAR":0.00031430849,"MEAN_MOTION_DOT":7.952e-5,"MEAN_MOTION_DDOT":0},{"OBJECT_NAME":"TIANMU-1 13","OBJECT_ID":"2023-205C","EPOCH":"2026-03-05T06:41:26.370816","MEAN_MOTION":15.25780764,"ECCENTRICITY":0.00069347,"INCLINATION":97.3561,"RA_OF_ASC_NODE":87.5178,"ARG_OF_PERICENTER":350.6299,"MEAN_ANOMALY":9.4809,"EPHEMERIS_TYPE":0,"CLASSIFICATION_TYPE":"U","NORAD_CAT_ID":58647,"ELEMENT_SET_NO":999,"REV_AT_EPOCH":12165,"BSTAR":0.00033625299,"MEAN_MOTION_DOT":8.525e-5,"MEAN_MOTION_DDOT":0},{"OBJECT_NAME":"TIANMU-1 14","OBJECT_ID":"2023-205D","EPOCH":"2026-03-05T06:19:07.417920","MEAN_MOTION":15.25758237,"ECCENTRICITY":0.0007847,"INCLINATION":97.3495,"RA_OF_ASC_NODE":86.7754,"ARG_OF_PERICENTER":353.8781,"MEAN_ANOMALY":6.236,"EPHEMERIS_TYPE":0,"CLASSIFICATION_TYPE":"U","NORAD_CAT_ID":58648,"ELEMENT_SET_NO":999,"REV_AT_EPOCH":12165,"BSTAR":0.0003358106,"MEAN_MOTION_DOT":8.509e-5,"MEAN_MOTION_DDOT":0},{"OBJECT_NAME":"TIANMU-1 19","OBJECT_ID":"2023-208A","EPOCH":"2026-03-05T06:46:00.031584","MEAN_MOTION":15.29721873,"ECCENTRICITY":0.00042016,"INCLINATION":97.4388,"RA_OF_ASC_NODE":180.2649,"ARG_OF_PERICENTER":336.2015,"MEAN_ANOMALY":23.9031,"EPHEMERIS_TYPE":0,"CLASSIFICATION_TYPE":"U","NORAD_CAT_ID":58660,"ELEMENT_SET_NO":999,"REV_AT_EPOCH":12143,"BSTAR":0.0004347266,"MEAN_MOTION_DOT":0.00012451,"MEAN_MOTION_DDOT":0},{"OBJECT_NAME":"TIANMU-1 20","OBJECT_ID":"2023-208B","EPOCH":"2026-03-05T06:28:20.424576","MEAN_MOTION":15.30911195,"ECCENTRICITY":0.00065075,"INCLINATION":97.4328,"RA_OF_ASC_NODE":180.7818,"ARG_OF_PERICENTER":342.5351,"MEAN_ANOMALY":17.5665,"EPHEMERIS_TYPE":0,"CLASSIFICATION_TYPE":"U","NORAD_CAT_ID":58661,"ELEMENT_SET_NO":999,"REV_AT_EPOCH":12151,"BSTAR":0.00043465655,"MEAN_MOTION_DOT":0.00012921,"MEAN_MOTION_DDOT":0},{"OBJECT_NAME":"TIANMU-1 21","OBJECT_ID":"2023-208C","EPOCH":"2026-03-05T06:34:30.957888","MEAN_MOTION":15.32904393,"ECCENTRICITY":0.0006263,"INCLINATION":97.4382,"RA_OF_ASC_NODE":183.0439,"ARG_OF_PERICENTER":335.8468,"MEAN_ANOMALY":24.2479,"EPHEMERIS_TYPE":0,"CLASSIFICATION_TYPE":"U","NORAD_CAT_ID":58662,"ELEMENT_SET_NO":999,"REV_AT_EPOCH":12163,"BSTAR":0.00047036475,"MEAN_MOTION_DOT":0.0001489,"MEAN_MOTION_DDOT":0},{"OBJECT_NAME":"TIANMU-1 22","OBJECT_ID":"2023-208D","EPOCH":"2026-03-05T07:09:49.617216","MEAN_MOTION":15.29347209,"ECCENTRICITY":0.00034837,"INCLINATION":97.4383,"RA_OF_ASC_NODE":180.2953,"ARG_OF_PERICENTER":10.0646,"MEAN_ANOMALY":350.0663,"EPHEMERIS_TYPE":0,"CLASSIFICATION_TYPE":"U","NORAD_CAT_ID":58663,"ELEMENT_SET_NO":999,"REV_AT_EPOCH":12144,"BSTAR":0.00038731874,"MEAN_MOTION_DOT":0.00010955,"MEAN_MOTION_DDOT":0},{"OBJECT_NAME":"TIANMU-1 15","OBJECT_ID":"2024-004A","EPOCH":"2026-03-05T07:50:20.046624","MEAN_MOTION":15.25756173,"ECCENTRICITY":0.0007043,"INCLINATION":97.4662,"RA_OF_ASC_NODE":250.5709,"ARG_OF_PERICENTER":5.7251,"MEAN_ANOMALY":354.4066,"EPHEMERIS_TYPE":0,"CLASSIFICATION_TYPE":"U","NORAD_CAT_ID":58700,"ELEMENT_SET_NO":999,"REV_AT_EPOCH":11993,"BSTAR":0.00034404817,"MEAN_MOTION_DOT":8.716e-5,"MEAN_MOTION_DDOT":0},{"OBJECT_NAME":"TIANMU-1 16","OBJECT_ID":"2024-004B","EPOCH":"2026-03-05T07:26:41.528832","MEAN_MOTION":15.25790715,"ECCENTRICITY":0.00055538,"INCLINATION":97.4604,"RA_OF_ASC_NODE":249.8808,"ARG_OF_PERICENTER":11.6216,"MEAN_ANOMALY":348.5149,"EPHEMERIS_TYPE":0,"CLASSIFICATION_TYPE":"U","NORAD_CAT_ID":58701,"ELEMENT_SET_NO":999,"REV_AT_EPOCH":11993,"BSTAR":0.0003732439,"MEAN_MOTION_DOT":9.471e-5,"MEAN_MOTION_DDOT":0},{"OBJECT_NAME":"TIANMU-1 17","OBJECT_ID":"2024-004C","EPOCH":"2026-03-05T07:01:23.877408","MEAN_MOTION":15.25825946,"ECCENTRICITY":0.00048143,"INCLINATION":97.4636,"RA_OF_ASC_NODE":250.3149,"ARG_OF_PERICENTER":15.0144,"MEAN_ANOMALY":345.1236,"EPHEMERIS_TYPE":0,"CLASSIFICATION_TYPE":"U","NORAD_CAT_ID":58702,"ELEMENT_SET_NO":999,"REV_AT_EPOCH":11992,"BSTAR":0.00033493015,"MEAN_MOTION_DOT":8.498e-5,"MEAN_MOTION_DDOT":0},{"OBJECT_NAME":"TIANMU-1 18","OBJECT_ID":"2024-004D","EPOCH":"2026-03-05T06:39:49.513824","MEAN_MOTION":15.25775569,"ECCENTRICITY":0.00042207,"INCLINATION":97.4654,"RA_OF_ASC_NODE":250.5108,"ARG_OF_PERICENTER":16.4192,"MEAN_ANOMALY":343.7182,"EPHEMERIS_TYPE":0,"CLASSIFICATION_TYPE":"U","NORAD_CAT_ID":58703,"ELEMENT_SET_NO":999,"REV_AT_EPOCH":11992,"BSTAR":0.00034926485,"MEAN_MOTION_DOT":8.851e-5,"MEAN_MOTION_DDOT":0},{"OBJECT_NAME":"INSAT-3DS","OBJECT_ID":"2024-033A","EPOCH":"2026-03-05T04:07:07.122144","MEAN_MOTION":1.00270294,"ECCENTRICITY":0.00023196,"INCLINATION":0.0539,"RA_OF_ASC_NODE":262.9489,"ARG_OF_PERICENTER":96.5331,"MEAN_ANOMALY":307.26,"EPHEMERIS_TYPE":0,"CLASSIFICATION_TYPE":"U","NORAD_CAT_ID":58990,"ELEMENT_SET_NO":999,"REV_AT_EPOCH":4602,"BSTAR":0,"MEAN_MOTION_DOT":-1.64e-6,"MEAN_MOTION_DDOT":0},{"OBJECT_NAME":"METEOR-M2 4","OBJECT_ID":"2024-039A","EPOCH":"2026-03-05T06:54:33.759936","MEAN_MOTION":14.22416277,"ECCENTRICITY":0.00080915,"INCLINATION":98.69,"RA_OF_ASC_NODE":24.9578,"ARG_OF_PERICENTER":107.3344,"MEAN_ANOMALY":252.8719,"EPHEMERIS_TYPE":0,"CLASSIFICATION_TYPE":"U","NORAD_CAT_ID":59051,"ELEMENT_SET_NO":999,"REV_AT_EPOCH":10449,"BSTAR":3.7914668e-5,"MEAN_MOTION_DOT":4.1e-7,"MEAN_MOTION_DDOT":0}]
