TIANMU-1 10             
1 57402U 23101D   26064.25156821  .00007131  00000+0  25467-3 0  9991
2 57402  97.2757 117.4940 0006576 147.0722 213.0929 15.29127392145759
FENGYUN 3F              
1 57490U 23111A   26064.31907493  .00000108  00000+0  71207-4 0  9996
2 57490  98.6936 136.2261 0001314  81.9850 278.1476 14.19918312134124
ARKTIKA-M 2             
1 58584U 23198A   26062.08261615  .00000137  00000+0  00000+0 0  9997
2 58584  63.2203 166.1216 6876963 267.7841  18.8417  2.00614888 16194
TIANMU-1 11             
1 58645U 23205A   26064.28111300  .00008293  00000+0  32673-3 0  9999
2 58645  97.3546  87.5032 0009539  23.2224 336.9444 15.25807822121670
TIANMU-1 12             
1 58646U 23205B   26064.31331990  .00007952  00000+0  31431-3 0  9995
2 58646  97.3534  87.3149 0007304   9.9112 350.2269 15.25732592121664
TIANMU-1 13             
1 58647U 23205C   26064.27877744  .00008525  00000+0  33625-3 0  9997
2 58647  97.3561  87.5178 0006934 350.6299   9.4809 15.25780764121655
TIANMU-1 14             
1 58648U 23205D   26064.26328030  .00008509  00000+0  33581-3 0  9999
2 58648  97.3495  86.7754 0007847 353.8781   6.2360 15.25758237121655
TIANMU-1 19             
1 58660U 23208A   26064.28194481  .00012451  00000+0  43473-3 0  9991
2 58660  97.4388 180.2649 0004201 336.2015  23.9031 15.29721873121437
TIANMU-1 20             
1 58661U 23208B   26064.26968084  .00012921  00000+0  43466-3 0  9992
2 58661  97.4328 180.7818 0006507 342.5351  17.5665 15.30911195121510
TIANMU-1 21             
1 58662U 23208C   26064.27396942  .00014890  00000+0  47036-3 0  9996
2 58662  97.4382 183.0439 0006263 335.8468  24.2479 15.32904393121634
TIANMU-1 22             
1 58663U 23208D   26064.29849094  .00010955  00000+0  38732-3 0  9991
2 58663  97.4383 180.2953 0003483  10.0646 350.0663 15.29347209121444
TIANMU-1 15             
1 58700U 24004A   26064.32662091  .00008716  00000+0  34405-3 0  9997
2 58700  97.4662 250.5709 0007043   5.7251 354.4066 15.25756173119931
TIANMU-1 16             
1 58701U 24004B   26064.31020288  .00009471  00000+0  37324-3 0  9995
2 58701  97.4604 249.8808 0005553  11.6216 348.5149 15.25790715119936
TIANMU-1 17             
1 58702U 24004C   26064.29263747  .00008498  00000+0  33493-3 0  9993
2 58702  97.4636 250.3149 0004814  15.0144 345.1236 15.25825946119928
TIANMU-1 18             
1 58703U 24004D   26064.27765641  .00008851  00000+0  34926-3 0  9997
2 58703  97.4654 250.5108 0004220  16.4192 343.7182 15.25775569119924
INSAT-3DS               
1 58990U 24033A   26064.17161021 -.00000164  00000+0  00000+0 0  9990
2 58990   0.0539 262.9489 0002319  96.5331 307.2600  1.00270294 46027
METEOR-M2 4             
1 59051U 24039A   26064.28789074  .00000041  00000+0  37915-4 0  9994
2 59051  98.6900  24.9578 0008091 107.3344 252.8719 14.22416277104497
